{
 "type": "FeatureCollection",
 "features": [
  {
   "type": "Feature",
   "properties": {
    "hub": {
     "lat": 19.047,
     "lon": 72.823
    },
    "hub_name": "lands_end",
    "costing": "auto",
    "contour_minutes": 20,
    "provider": "valhalla1.openstreetmap.de",
    "polygon_count": 1,
    "vertex_count": 0,
    "bbox": [
     72.809426,
     18.990739,
     72.86219,
     19.091031
    ]
   },
   "geometry": {
    "coordinates": [
     [
      [
       72.845,
       19.091031
      ],
      [
       72.842929,
       19.091
      ],
      [
       72.842809,
       19.08719
      ],
      [
       72.844253,
       19.086253
      ],
      [
       72.845569,
       19.083
      ],
      [
       72.845405,
       19.079
      ],
      [
       72.843945,
       19.075
      ],
      [
       72.845641,
       19.067
      ],
      [
       72.845,
       19.0651
      ],
      [
       72.842432,
       19.063567
      ],
      [
       72.841,
       19.05966
      ],
      [
       72.839278,
       19.073
      ],
      [
       72.839302,
       19.074697
      ],
      [
       72.840332,
       19.075
      ],
      [
       72.839165,
       19.077165
      ],
      [
       72.837,
       19.079
      ],
      [
       72.833,
       19.074265
      ],
      [
       72.831513,
       19.075
      ],
      [
       72.829,
       19.079452
      ],
      [
       72.827,
       19.077959
      ],
      [
       72.825,
       19.079658
      ],
      [
       72.820724,
       19.079275
      ],
      [
       72.819556,
       19.078443
      ],
      [
       72.819341,
       19.071
      ],
      [
       72.819683,
       19.069683
      ],
      [
       72.821271,
       19.069
      ],
      [
       72.821193,
       19.061193
      ],
      [
       72.819412,
       19.060587
      ],
      [
       72.819206,
       19.059
      ],
      [
       72.819412,
       19.057412
      ],
      [
       72.821123,
       19.057123
      ],
      [
       72.821149,
       19.055
      ],
      [
       72.819296,
       19.054703
      ],
      [
       72.819077,
       19.048922
      ],
      [
       72.817249,
       19.04875
      ],
      [
       72.817269,
       19.041
      ],
      [
       72.815562,
       19.040437
      ],
      [
       72.815303,
       19.033
      ],
      [
       72.813631,
       19.032368
      ],
      [
       72.813315,
       19.031
      ],
      [
       72.813898,
       19.025
      ],
      [
       72.811362,
       19.023
      ],
      [
       72.811881,
       19.017
      ],
      [
       72.809426,
       19.015
      ],
      [
       72.809459,
       19.011
      ],
      [
       72.812264,
       19.009
      ],
      [
       72.812127,
       19.005872
      ],
      [
       72.809646,
       19.003
      ],
      [
       72.811,
       18.990739
      ],
      [
       72.811497,
       19.000502
      ],
      [
       72.813809,
       19.003
      ],
      [
       72.815,
       19.010809
      ],
      [
       72.817,
       19.010115
      ],
      [
       72.819,
       19.012117
      ],
      [
       72.821624,
       19.012375
      ],
      [
       72.822795,
       19.017
      ],
      [
       72.817,
       19.019191
      ],
      [
       72.816008,
       19.017991
      ],
      [
       72.815552,
       19.015
      ],
      [
       72.814577,
       19.015
      ],
      [
       72.814626,
       19.021
      ],
      [
       72.815941,
       19.022058
      ],
      [
       72.816676,
       19.029
      ],
      [
       72.818373,
       19.029626
      ],
      [
       72.818813,
       19.037186
      ],
      [
       72.820449,
       19.03755
      ],
      [
       72.82082,
       19.039179
      ],
      [
       72.822475,
       19.039524
      ],
      [
       72.823,
       19.041249
      ],
      [
       72.828525,
       19.041474
      ],
      [
       72.828852,
       19.043147
      ],
      [
       72.830583,
       19.043416
      ],
      [
       72.830862,
       19.045137
      ],
      [
       72.832565,
       19.045434
      ],
      [
       72.832861,
       19.047139
      ],
      [
       72.835201,
       19.047201
      ],
      [
       72.835876,
       19.041
      ],
      [
       72.837533,
       19.039
      ],
      [
       72.83897,
       19.03297
      ],
      [
       72.841,
       19.034298
      ],
      [
       72.84305,
       19.030949
      ],
      [
       72.844574,
       19.033425
      ],
      [
       72.847,
       19.035293
      ],
      [
       72.847921,
       19.041
      ],
      [
       72.846908,
       19.043091
      ],
      [
       72.853,
       19.045197
      ],
      [
       72.853753,
       19.048246
      ],
      [
       72.855138,
       19.049
      ],
      [
       72.850518,
       19.051
      ],
      [
       72.854104,
       19.051895
      ],
      [
       72.856386,
       19.055
      ],
      [
       72.856614,
       19.057385
      ],
      [
       72.86219,
       19.059
      ],
      [
       72.86063,
       19.06463
      ],
      [
       72.855,
       19.064356
      ],
      [
       72.853,
       19.063237
      ],
      [
       72.850676,
       19.064676
      ],
      [
       72.849,
       19.067299
      ],
      [
       72.848,
       19.071
      ],
      [
       72.848647,
       19.073352
      ],
      [
       72.853,
       19.072478
      ],
      [
       72.853859,
       19.075
      ],
      [
       72.848326,
       19.076326
      ],
      [
       72.848502,
       19.081
      ],
      [
       72.847454,
       19.085
      ],
      [
       72.845864,
       19.085864
      ],
      [
       72.845279,
       19.087279
      ],
      [
       72.843478,
       19.087478
      ],
      [
       72.843157,
       19.090842
      ],
      [
       72.845487,
       19.091
      ],
      [
       72.845,
       19.091031
      ]
     ]
    ],
    "type": "Polygon"
   }
  }
 ]
}