{
 "type": "FeatureCollection",
 "features": [
  {
   "type": "Feature",
   "properties": {
    "hub": {
     "lat": 19.047,
     "lon": 72.823
    },
    "hub_name": "lands_end",
    "costing": "pedestrian",
    "contour_minutes": 10,
    "provider": "valhalla1.openstreetmap.de",
    "polygon_count": 1,
    "vertex_count": 0,
    "bbox": [
     72.820673,
     19.042591,
     72.828732,
     19.052633
    ]
   },
   "geometry": {
    "coordinates": [
     [
      [
       72.827,
       19.052389
      ],
      [
       72.826,
       19.052633
      ],
      [
       72.823954,
       19.052
      ],
      [
       72.823213,
       19.049786
      ],
      [
       72.822482,
       19.049
      ],
      [
       72.823276,
       19.048
      ],
      [
       72.822399,
       19.047601
      ],
      [
       72.822318,
       19.045681
      ],
      [
       72.821231,
       19.045
      ],
      [
       72.820673,
       19.044
      ],
      [
       72.821,
       19.042811
      ],
      [
       72.822,
       19.042591
      ],
      [
       72.82259,
       19.043409
      ],
      [
       72.825,
       19.044134
      ],
      [
       72.825794,
       19.045205
      ],
      [
       72.827419,
       19.046
      ],
      [
       72.82685,
       19.04815
      ],
      [
       72.827353,
       19.048646
      ],
      [
       72.827534,
       19.050466
      ],
      [
       72.828732,
       19.051
      ],
      [
       72.827,
       19.052389
      ]
     ]
    ],
    "type": "Polygon"
   }
  }
 ]
}