{
 "type": "FeatureCollection",
 "features": [
  {
   "type": "Feature",
   "properties": {
    "hub": {
     "lat": 19.047,
     "lon": 72.823
    },
    "hub_name": "lands_end",
    "costing": "pedestrian",
    "contour_minutes": 5,
    "provider": "valhalla1.openstreetmap.de",
    "polygon_count": 1,
    "vertex_count": 0,
    "bbox": [
     72.822662,
     19.044577,
     72.826,
     19.049169
    ]
   },
   "geometry": {
    "coordinates": [
     [
      [
       72.825,
       19.049169
      ],
      [
       72.824,
       19.048673
      ],
      [
       72.823455,
       19.047544
      ],
      [
       72.822732,
       19.047267
      ],
      [
       72.823248,
       19.046
      ],
      [
       72.822662,
       19.045
      ],
      [
       72.823,
       19.044577
      ],
      [
       72.825,
       19.044875
      ],
      [
       72.825266,
       19.045733
      ],
      [
       72.825892,
       19.046107
      ],
      [
       72.826,
       19.048897
      ],
      [
       72.825,
       19.049169
      ]
     ]
    ],
    "type": "Polygon"
   }
  }
 ]
}