{
 "type": "FeatureCollection",
 "features": [
  {
   "type": "Feature",
   "properties": {
    "hub": {
     "lat": 19.047,
     "lon": 72.823
    },
    "hub_name": "lands_end",
    "costing": "auto",
    "contour_minutes": 5,
    "provider": "valhalla1.openstreetmap.de",
    "polygon_count": 1,
    "vertex_count": 0,
    "bbox": [
     72.819259,
     19.044844,
     72.823581,
     19.052009
    ]
   },
   "geometry": {
    "coordinates": [
     [
      [
       72.823,
       19.052009
      ],
      [
       72.821622,
       19.051
      ],
      [
       72.821327,
       19.046672
      ],
      [
       72.820403,
       19.046403
      ],
      [
       72.82,
       19.046787
      ],
      [
       72.819259,
       19.046
      ],
      [
       72.819555,
       19.045555
      ],
      [
       72.821,
       19.045472
      ],
      [
       72.821844,
       19.044844
      ],
      [
       72.823483,
       19.047
      ],
      [
       72.823581,
       19.051
      ],
      [
       72.823,
       19.052009
      ]
     ]
    ],
    "type": "Polygon"
   }
  }
 ]
}