{
 "type": "FeatureCollection",
 "features": [
  {
   "type": "Feature",
   "properties": {
    "hub": {
     "lat": 19.047,
     "lon": 72.823
    },
    "hub_name": "lands_end",
    "costing": "auto",
    "contour_minutes": 15,
    "provider": "valhalla1.openstreetmap.de",
    "polygon_count": 1,
    "vertex_count": 0,
    "bbox": [
     72.814873,
     19.02758,
     72.850106,
     19.071701
    ]
   },
   "geometry": {
    "coordinates": [
     [
      [
       72.823,
       19.071109
      ],
      [
       72.822,
       19.071701
      ],
      [
       72.821738,
       19.071
      ],
      [
       72.821688,
       19.07
      ],
      [
       72.822451,
       19.069
      ],
      [
       72.822234,
       19.064
      ],
      [
       72.821214,
       19.063
      ],
      [
       72.821199,
       19.058
      ],
      [
       72.821398,
       19.057398
      ],
      [
       72.8231,
       19.0571
      ],
      [
       72.823255,
       19.055255
      ],
      [
       72.824109,
       19.055
      ],
      [
       72.821254,
       19.054745
      ],
      [
       72.821102,
       19.052
      ],
      [
       72.820237,
       19.051762
      ],
      [
       72.820083,
       19.049916
      ],
      [
       72.819316,
       19.049683
      ],
      [
       72.819092,
       19.047
      ],
      [
       72.818186,
       19.046813
      ],
      [
       72.818093,
       19.046
      ],
      [
       72.818205,
       19.042205
      ],
      [
       72.820448,
       19.042551
      ],
      [
       72.821194,
       19.043194
      ],
      [
       72.822129,
       19.043
      ],
      [
       72.820665,
       19.042334
      ],
      [
       72.820751,
       19.041248
      ],
      [
       72.819192,
       19.041192
      ],
      [
       72.819,
       19.041582
      ],
      [
       72.817446,
       19.04
      ],
      [
       72.817824,
       19.037175
      ],
      [
       72.816516,
       19.037
      ],
      [
       72.816888,
       19.033111
      ],
      [
       72.815644,
       19.033
      ],
      [
       72.815604,
       19.030395
      ],
      [
       72.814873,
       19.03
      ],
      [
       72.815,
       19.02758
      ],
      [
       72.815277,
       19.029722
      ],
      [
       72.816131,
       19.029868
      ],
      [
       72.816322,
       19.032
      ],
      [
       72.817366,
       19.033
      ],
      [
       72.817469,
       19.036
      ],
      [
       72.818496,
       19.037
      ],
      [
       72.818548,
       19.039
      ],
      [
       72.819723,
       19.040276
      ],
      [
       72.821,
       19.040396
      ],
      [
       72.821745,
       19.041254
      ],
      [
       72.823452,
       19.041547
      ],
      [
       72.824,
       19.042194
      ],
      [
       72.826,
       19.042471
      ],
      [
       72.826785,
       19.043214
      ],
      [
       72.828,
       19.04329
      ],
      [
       72.828826,
       19.044173
      ],
      [
       72.83054,
       19.044459
      ],
      [
       72.830875,
       19.047124
      ],
      [
       72.831585,
       19.047414
      ],
      [
       72.833,
       19.049083
      ],
      [
       72.837197,
       19.049197
      ],
      [
       72.837718,
       19.048
      ],
      [
       72.837819,
       19.046
      ],
      [
       72.838671,
       19.045671
      ],
      [
       72.839,
       19.044393
      ],
      [
       72.839491,
       19.045
      ],
      [
       72.839258,
       19.047258
      ],
      [
       72.83961,
       19.050389
      ],
      [
       72.842,
       19.050429
      ],
      [
       72.843,
       19.051458
      ],
      [
       72.844308,
       19.051691
      ],
      [
       72.845,
       19.052648
      ],
      [
       72.848176,
       19.052823
      ],
      [
       72.849233,
       19.054
      ],
      [
       72.84923,
       19.054769
      ],
      [
       72.850106,
       19.055
      ],
      [
       72.85,
       19.055285
      ],
      [
       72.849079,
       19.055079
      ],
      [
       72.848711,
       19.054288
      ],
      [
       72.847,
       19.053419
      ],
      [
       72.846624,
       19.053624
      ],
      [
       72.846,
       19.058269
      ],
      [
       72.845586,
       19.054413
      ],
      [
       72.843325,
       19.052674
      ],
      [
       72.841637,
       19.052637
      ],
      [
       72.840724,
       19.053724
      ],
      [
       72.840285,
       19.056
      ],
      [
       72.839352,
       19.056352
      ],
      [
       72.839147,
       19.057
      ],
      [
       72.839,
       19.060563
      ],
      [
       72.838411,
       19.061
      ],
      [
       72.838896,
       19.062
      ],
      [
       72.83764,
       19.06264
      ],
      [
       72.837,
       19.06459
      ],
      [
       72.836,
       19.062758
      ],
      [
       72.835164,
       19.065164
      ],
      [
       72.83421,
       19.06521
      ],
      [
       72.834,
       19.066086
      ],
      [
       72.832,
       19.066689
      ],
      [
       72.83,
       19.069404
      ],
      [
       72.829182,
       19.066817
      ],
      [
       72.827754,
       19.066245
      ],
      [
       72.827492,
       19.065
      ],
      [
       72.826312,
       19.065
      ],
      [
       72.826368,
       19.066
      ],
      [
       72.824763,
       19.067763
      ],
      [
       72.823,
       19.071109
      ]
     ]
    ],
    "type": "Polygon"
   }
  }
 ]
}