{
 "type": "FeatureCollection",
 "features": [
  {
   "type": "Feature",
   "properties": {
    "hub": {
     "lat": 19.047,
     "lon": 72.823
    },
    "hub_name": "lands_end",
    "costing": "pedestrian",
    "contour_minutes": 20,
    "provider": "valhalla1.openstreetmap.de",
    "polygon_count": 1,
    "vertex_count": 0,
    "bbox": [
     72.817293,
     19.041196,
     72.835634,
     19.058589
    ]
   },
   "geometry": {
    "coordinates": [
     [
      [
       72.826,
       19.058046
      ],
      [
       72.825,
       19.058589
      ],
      [
       72.823508,
       19.058
      ],
      [
       72.823238,
       19.056
      ],
      [
       72.824144,
       19.055
      ],
      [
       72.821405,
       19.054594
      ],
      [
       72.821092,
       19.051907
      ],
      [
       72.820319,
       19.05168
      ],
      [
       72.820137,
       19.049862
      ],
      [
       72.819262,
       19.049
      ],
      [
       72.819376,
       19.045623
      ],
      [
       72.818799,
       19.0452
      ],
      [
       72.818366,
       19.044
      ],
      [
       72.817411,
       19.043588
      ],
      [
       72.817293,
       19.041293
      ],
      [
       72.820782,
       19.041217
      ],
      [
       72.821,
       19.042089
      ],
      [
       72.821196,
       19.041196
      ],
      [
       72.824741,
       19.041258
      ],
      [
       72.824908,
       19.042091
      ],
      [
       72.826606,
       19.042393
      ],
      [
       72.827,
       19.043292
      ],
      [
       72.828,
       19.043478
      ],
      [
       72.828805,
       19.044194
      ],
      [
       72.830599,
       19.0444
      ],
      [
       72.830856,
       19.046143
      ],
      [
       72.832298,
       19.047701
      ],
      [
       72.832789,
       19.04921
      ],
      [
       72.834119,
       19.04988
      ],
      [
       72.833965,
       19.051034
      ],
      [
       72.835634,
       19.052
      ],
      [
       72.835,
       19.0543
      ],
      [
       72.833183,
       19.056183
      ],
      [
       72.832,
       19.056576
      ],
      [
       72.831,
       19.05561
      ],
      [
       72.83,
       19.057743
      ],
      [
       72.828,
       19.056832
      ],
      [
       72.827,
       19.057867
      ],
      [
       72.826,
       19.058046
      ]
     ]
    ],
    "type": "Polygon"
   }
  }
 ]
}