{
 "type": "FeatureCollection",
 "features": [
  {
   "type": "Feature",
   "properties": {
    "hub": {
     "lat": 19.047,
     "lon": 72.823
    },
    "hub_name": "lands_end",
    "costing": "pedestrian",
    "contour_minutes": 15,
    "provider": "valhalla1.openstreetmap.de",
    "polygon_count": 1,
    "vertex_count": 0,
    "bbox": [
     72.817702,
     19.041193,
     72.831875,
     19.05546
    ]
   },
   "geometry": {
    "coordinates": [
     [
      [
       72.828,
       19.05546
      ],
      [
       72.827,
       19.054937
      ],
      [
       72.825,
       19.055415
      ],
      [
       72.82281,
       19.054189
      ],
      [
       72.820789,
       19.051
      ],
      [
       72.821539,
       19.048
      ],
      [
       72.820803,
       19.047
      ],
      [
       72.821651,
       19.046
      ],
      [
       72.821367,
       19.044633
      ],
      [
       72.82,
       19.043389
      ],
      [
       72.818844,
       19.043155
      ],
      [
       72.81771,
       19.04229
      ],
      [
       72.817702,
       19.041702
      ],
      [
       72.82,
       19.041239
      ],
      [
       72.821,
       19.04216
      ],
      [
       72.821387,
       19.041387
      ],
      [
       72.822,
       19.041193
      ],
      [
       72.824,
       19.041365
      ],
      [
       72.825308,
       19.043
      ],
      [
       72.826433,
       19.043566
      ],
      [
       72.826634,
       19.044365
      ],
      [
       72.828,
       19.045762
      ],
      [
       72.829,
       19.045647
      ],
      [
       72.829594,
       19.046
      ],
      [
       72.829591,
       19.048
      ],
      [
       72.828789,
       19.04921
      ],
      [
       72.831,
       19.050559
      ],
      [
       72.831875,
       19.052
      ],
      [
       72.831846,
       19.052846
      ],
      [
       72.831,
       19.054073
      ],
      [
       72.828799,
       19.054799
      ],
      [
       72.828,
       19.05546
      ]
     ]
    ],
    "type": "Polygon"
   }
  }
 ]
}