{
 "type": "FeatureCollection",
 "features": [
  {
   "type": "Feature",
   "properties": {
    "hub": {
     "lat": 19.047,
     "lon": 72.823
    },
    "hub_name": "lands_end",
    "costing": "pedestrian",
    "contour_minutes": 30,
    "provider": "valhalla1.openstreetmap.de",
    "polygon_count": 1,
    "vertex_count": 0,
    "bbox": [
     72.817119,
     19.041099,
     72.841556,
     19.065113
    ]
   },
   "geometry": {
    "coordinates": [
     [
      [
       72.825,
       19.065113
      ],
      [
       72.824,
       19.064572
      ],
      [
       72.823,
       19.064649
      ],
      [
       72.821525,
       19.063475
      ],
      [
       72.821163,
       19.061
      ],
      [
       72.820335,
       19.060664
      ],
      [
       72.820336,
       19.058336
      ],
      [
       72.821086,
       19.058086
      ],
      [
       72.821223,
       19.057223
      ],
      [
       72.823057,
       19.057057
      ],
      [
       72.82314,
       19.05514
      ],
      [
       72.824059,
       19.055
      ],
      [
       72.821133,
       19.054866
      ],
      [
       72.821061,
       19.052
      ],
      [
       72.820127,
       19.051872
      ],
      [
       72.820044,
       19.049955
      ],
      [
       72.819144,
       19.049855
      ],
      [
       72.819068,
       19.047
      ],
      [
       72.818198,
       19.046801
      ],
      [
       72.818078,
       19.044
      ],
      [
       72.817134,
       19.043865
      ],
      [
       72.817119,
       19.041119
      ],
      [
       72.820895,
       19.041104
      ],
      [
       72.821,
       19.042047
      ],
      [
       72.821099,
       19.041099
      ],
      [
       72.824887,
       19.041112
      ],
      [
       72.824961,
       19.042038
      ],
      [
       72.826867,
       19.042132
      ],
      [
       72.827,
       19.043074
      ],
      [
       72.828834,
       19.043165
      ],
      [
       72.829,
       19.044068
      ],
      [
       72.830866,
       19.044133
      ],
      [
       72.830954,
       19.046045
      ],
      [
       72.831854,
       19.046145
      ],
      [
       72.831948,
       19.047051
      ],
      [
       72.83283,
       19.047169
      ],
      [
       72.833,
       19.048098
      ],
      [
       72.836278,
       19.048278
      ],
      [
       72.838,
       19.046489
      ],
      [
       72.838813,
       19.049186
      ],
      [
       72.838874,
       19.051126
      ],
      [
       72.841013,
       19.051986
      ],
      [
       72.841437,
       19.052562
      ],
      [
       72.841556,
       19.053
      ],
      [
       72.840458,
       19.054
      ],
      [
       72.841328,
       19.056
      ],
      [
       72.839315,
       19.058315
      ],
      [
       72.838,
       19.058575
      ],
      [
       72.837163,
       19.060163
      ],
      [
       72.834411,
       19.062411
      ],
      [
       72.833,
       19.063236
      ],
      [
       72.832,
       19.063087
      ],
      [
       72.83,
       19.064636
      ],
      [
       72.827,
       19.063643
      ],
      [
       72.825,
       19.065113
      ]
     ]
    ],
    "type": "Polygon"
   }
  }
 ]
}