{
 "type": "FeatureCollection",
 "features": [
  {
   "type": "Feature",
   "properties": {
    "hub": {
     "lat": 19.047,
     "lon": 72.823
    },
    "hub_name": "lands_end",
    "costing": "auto",
    "contour_minutes": 10,
    "provider": "valhalla1.openstreetmap.de",
    "polygon_count": 1,
    "vertex_count": 0,
    "bbox": [
     72.818175,
     19.042212,
     72.833741,
     19.060871
    ]
   },
   "geometry": {
    "coordinates": [
     [
      [
       72.826,
       19.060454
      ],
      [
       72.825,
       19.060871
      ],
      [
       72.823381,
       19.06
      ],
      [
       72.823632,
       19.059
      ],
      [
       72.823069,
       19.058
      ],
      [
       72.823354,
       19.056
      ],
      [
       72.824241,
       19.055
      ],
      [
       72.822,
       19.054649
      ],
      [
       72.82135,
       19.054
      ],
      [
       72.821151,
       19.051
      ],
      [
       72.819754,
       19.049
      ],
      [
       72.820307,
       19.048
      ],
      [
       72.819346,
       19.047653
      ],
      [
       72.818175,
       19.046
      ],
      [
       72.818212,
       19.043
      ],
      [
       72.818424,
       19.042424
      ],
      [
       72.819,
       19.042212
      ],
      [
       72.82,
       19.042326
      ],
      [
       72.820531,
       19.043468
      ],
      [
       72.822419,
       19.044581
      ],
      [
       72.822893,
       19.046
      ],
      [
       72.823702,
       19.046297
      ],
      [
       72.824,
       19.047316
      ],
      [
       72.825,
       19.047002
      ],
      [
       72.83,
       19.049393
      ],
      [
       72.831653,
       19.051346
      ],
      [
       72.833,
       19.051472
      ],
      [
       72.833741,
       19.052
      ],
      [
       72.83326,
       19.053
      ],
      [
       72.832,
       19.053172
      ],
      [
       72.831318,
       19.054
      ],
      [
       72.833191,
       19.056
      ],
      [
       72.831901,
       19.056098
      ],
      [
       72.831745,
       19.055254
      ],
      [
       72.830486,
       19.055486
      ],
      [
       72.830242,
       19.056757
      ],
      [
       72.830527,
       19.057
      ],
      [
       72.83,
       19.058236
      ],
      [
       72.828597,
       19.057
      ],
      [
       72.827,
       19.057388
      ],
      [
       72.826042,
       19.058957
      ],
      [
       72.82688,
       19.06
      ],
      [
       72.826,
       19.060454
      ]
     ]
    ],
    "type": "Polygon"
   }
  }
 ]
}