{
 "type": "FeatureCollection",
 "features": [
  {
   "type": "Feature",
   "properties": {
    "hub": {
     "lat": 19.047,
     "lon": 72.823
    },
    "hub_name": "lands_end",
    "costing": "auto",
    "contour_minutes": 30,
    "provider": "valhalla1.openstreetmap.de",
    "polygon_count": 1,
    "vertex_count": 0,
    "bbox": [
     72.797346,
     18.946891,
     72.883944,
     19.136988
    ]
   },
   "geometry": {
    "coordinates": [
     [
      [
       72.855,
       19.136988
      ],
      [
       72.854124,
       19.135
      ],
      [
       72.85464,
       19.133
      ],
      [
       72.854023,
       19.125
      ],
      [
       72.855229,
       19.123
      ],
      [
       72.853,
       19.119875
      ],
      [
       72.847,
       19.120698
      ],
      [
       72.845836,
       19.118163
      ],
      [
       72.844291,
       19.117
      ],
      [
       72.844012,
       19.115
      ],
      [
       72.845,
       19.114759
      ],
      [
       72.846042,
       19.113
      ],
      [
       72.844667,
       19.111
      ],
      [
       72.846169,
       19.109
      ],
      [
       72.845,
       19.107275
      ],
      [
       72.842874,
       19.107
      ],
      [
       72.843787,
       19.103787
      ],
      [
       72.843,
       19.100192
      ],
      [
       72.839,
       19.106482
      ],
      [
       72.835373,
       19.103
      ],
      [
       72.837481,
       19.099481
      ],
      [
       72.8375,
       19.0975
      ],
      [
       72.837283,
       19.094716
      ],
      [
       72.835,
       19.092584
      ],
      [
       72.830604,
       19.092604
      ],
      [
       72.829867,
       19.097
      ],
      [
       72.827,
       19.098483
      ],
      [
       72.826132,
       19.097
      ],
      [
       72.825336,
       19.087
      ],
      [
       72.823565,
       19.085
      ],
      [
       72.823671,
       19.083
      ],
      [
       72.82283,
       19.08283
      ],
      [
       72.82244,
       19.08444
      ],
      [
       72.819559,
       19.08444
      ],
      [
       72.819267,
       19.081
      ],
      [
       72.817374,
       19.080625
      ],
      [
       72.817374,
       19.077374
      ],
      [
       72.819155,
       19.077
      ],
      [
       72.819252,
       19.069252
      ],
      [
       72.821115,
       19.069
      ],
      [
       72.821096,
       19.061
      ],
      [
       72.819203,
       19.060796
      ],
      [
       72.819101,
       19.059
      ],
      [
       72.819203,
       19.057203
      ],
      [
       72.821064,
       19.057064
      ],
      [
       72.821085,
       19.055
      ],
      [
       72.81917,
       19.054829
      ],
      [
       72.819049,
       19.04895
      ],
      [
       72.817153,
       19.048846
      ],
      [
       72.817114,
       19.041
      ],
      [
       72.815233,
       19.040766
      ],
      [
       72.81512,
       19.033
      ],
      [
       72.813244,
       19.032755
      ],
      [
       72.813102,
       19.026897
      ],
      [
       72.811562,
       19.026437
      ],
      [
       72.811176,
       19.024823
      ],
      [
       72.811132,
       19.019
      ],
      [
       72.809504,
       19.018495
      ],
      [
       72.809176,
       19.016823
      ],
      [
       72.80937,
       19.007
      ],
      [
       72.811557,
       19.005
      ],
      [
       72.810213,
       19.004213
      ],
      [
       72.809434,
       19.004565
      ],
      [
       72.809153,
       19.003
      ],
      [
       72.809198,
       18.985
      ],
      [
       72.809341,
       18.983341
      ],
      [
       72.810209,
       18.983
      ],
      [
       72.809,
       18.980549
      ],
      [
       72.803503,
       18.980496
      ],
      [
       72.803172,
       18.976827
      ],
      [
       72.801523,
       18.976476
      ],
      [
       72.801,
       18.973474
      ],
      [
       72.798107,
       18.971892
      ],
      [
       72.797553,
       18.970446
      ],
      [
       72.797951,
       18.967951
      ],
      [
       72.799296,
       18.967
      ],
      [
       72.799224,
       18.964775
      ],
      [
       72.797693,
       18.964306
      ],
      [
       72.797346,
       18.963
      ],
      [
       72.797388,
       18.959
      ],
      [
       72.799,
       18.956151
      ],
      [
       72.807531,
       18.955531
      ],
      [
       72.808114,
       18.954114
      ],
      [
       72.811443,
       18.953443
      ],
      [
       72.812999,
       18.951732
      ],
      [
       72.813588,
       18.952412
      ],
      [
       72.816394,
       18.952394
      ],
      [
       72.817,
       18.949931
      ],
      [
       72.820891,
       18.946891
      ],
      [
       72.822105,
       18.947
      ],
      [
       72.821152,
       18.947152
      ],
      [
       72.821073,
       18.949073
      ],
      [
       72.819413,
       18.949413
      ],
      [
       72.819177,
       18.951177
      ],
      [
       72.817795,
       18.951795
      ],
      [
       72.817344,
       18.953345
      ],
      [
       72.814173,
       18.954173
      ],
      [
       72.812999,
       18.956484
      ],
      [
       72.808738,
       18.956738
      ],
      [
       72.808558,
       18.957441
      ],
      [
       72.811,
       18.958023
      ],
      [
       72.812049,
       18.95995
      ],
      [
       72.814049,
       18.961
      ],
      [
       72.813125,
       18.966874
      ],
      [
       72.81442,
       18.967579
      ],
      [
       72.817,
       18.967214
      ],
      [
       72.818929,
       18.969
      ],
      [
       72.81802,
       18.971
      ],
      [
       72.818616,
       18.973
      ],
      [
       72.81668,
       18.97468
      ],
      [
       72.816358,
       18.977
      ],
      [
       72.821307,
       18.978692
      ],
      [
       72.822735,
       18.981
      ],
      [
       72.821749,
       18.981749
      ],
      [
       72.819,
       18.981395
      ],
      [
       72.817,
       18.982354
      ],
      [
       72.81879,
       18.989
      ],
      [
       72.821913,
       18.987913
      ],
      [
       72.823,
       18.986385
      ],
      [
       72.824311,
       18.987
      ],
      [
       72.824336,
       18.995
      ],
      [
       72.827,
       18.996182
      ],
      [
       72.829989,
       18.999
      ],
      [
       72.833,
       19.004126
      ],
      [
       72.837568,
       19.006431
      ],
      [
       72.837867,
       19.010133
      ],
      [
       72.839972,
       19.012027
      ],
      [
       72.840706,
       19.015293
      ],
      [
       72.842317,
       19.015
      ],
      [
       72.840763,
       19.009236
      ],
      [
       72.841,
       19.007257
      ],
      [
       72.847,
       19.01103
      ],
      [
       72.849,
       19.01043
      ],
      [
       72.853,
       19.012113
      ],
      [
       72.855,
       19.011233
      ],
      [
       72.856532,
       19.015
      ],
      [
       72.856728,
       19.019
      ],
      [
       72.854729,
       19.02327
      ],
      [
       72.857,
       19.026349
      ],
      [
       72.859072,
       19.027
      ],
      [
       72.863676,
       19.034323
      ],
      [
       72.86477,
       19.037
      ],
      [
       72.864253,
       19.039
      ],
      [
       72.8653,
       19.043
      ],
      [
       72.864894,
       19.047105
      ],
      [
       72.866478,
       19.047521
      ],
      [
       72.867,
       19.049461
      ],
      [
       72.873,
       19.048594
      ],
      [
       72.873815,
       19.050184
      ],
      [
       72.879,
       19.050858
      ],
      [
       72.879268,
       19.052731
      ],
      [
       72.881115,
       19.053
      ],
      [
       72.879,
       19.053373
      ],
      [
       72.877,
       19.051832
      ],
      [
       72.871,
       19.051945
      ],
      [
       72.870001,
       19.053
      ],
      [
       72.869856,
       19.055
      ],
      [
       72.872002,
       19.057998
      ],
      [
       72.874195,
       19.059
      ],
      [
       72.875436,
       19.062563
      ],
      [
       72.879084,
       19.064916
      ],
      [
       72.879646,
       19.068353
      ],
      [
       72.881,
       19.069334
      ],
      [
       72.882033,
       19.071966
      ],
      [
       72.883944,
       19.073
      ],
      [
       72.88185,
       19.075
      ],
      [
       72.88152,
       19.08152
      ],
      [
       72.881,
       19.082018
      ],
      [
       72.875,
       19.079541
      ],
      [
       72.873765,
       19.081765
      ],
      [
       72.871,
       19.082386
      ],
      [
       72.869,
       19.084259
      ],
      [
       72.866574,
       19.084574
      ],
      [
       72.865,
       19.086376
      ],
      [
       72.858706,
       19.086706
      ],
      [
       72.858066,
       19.088066
      ],
      [
       72.856547,
       19.088547
      ],
      [
       72.853876,
       19.088123
      ],
      [
       72.853,
       19.08667
      ],
      [
       72.851,
       19.086663
      ],
      [
       72.850241,
       19.088241
      ],
      [
       72.846705,
       19.089
      ],
      [
       72.848627,
       19.089372
      ],
      [
       72.849,
       19.091191
      ],
      [
       72.858398,
       19.091601
      ],
      [
       72.858783,
       19.093216
      ],
      [
       72.860175,
       19.093824
      ],
      [
       72.860587,
       19.095
      ],
      [
       72.858344,
       19.098344
      ],
      [
       72.856815,
       19.098815
      ],
      [
       72.857,
       19.099526
      ],
      [
       72.860422,
       19.099577
      ],
      [
       72.861,
       19.101254
      ],
      [
       72.863178,
       19.100821
      ],
      [
       72.869,
       19.102249
      ],
      [
       72.875773,
       19.102226
      ],
      [
       72.876947,
       19.103
      ],
      [
       72.864575,
       19.105
      ],
      [
       72.866012,
       19.107
      ],
      [
       72.864917,
       19.110917
      ],
      [
       72.861213,
       19.113213
      ],
      [
       72.857,
       19.118889
      ],
      [
       72.857998,
       19.120001
      ],
      [
       72.858197,
       19.123
      ],
      [
       72.857684,
       19.125684
      ],
      [
       72.856033,
       19.127
      ],
      [
       72.855,
       19.136988
      ]
     ]
    ],
    "type": "Polygon"
   }
  }
 ]
}