{
 "type": "FeatureCollection",
 "features": [
  {
   "type": "Feature",
   "properties": {
    "hub": {
     "lat": 19.0596,
     "lon": 72.8296
    },
    "hub_name": "pali_hill",
    "costing": "pedestrian",
    "contour_minutes": 5,
    "provider": "valhalla1.openstreetmap.de",
    "polygon_count": 1,
    "vertex_count": 0,
    "bbox": [
     72.825205,
     19.055404,
     72.833959,
     19.06366
    ]
   },
   "geometry": {
    "coordinates": [
     [
      [
       72.8296,
       19.06366
      ],
      [
       72.825205,
       19.0596
      ],
      [
       72.828344,
       19.057344
      ],
      [
       72.8296,
       19.055404
      ],
      [
       72.8306,
       19.056987
      ],
      [
       72.831628,
       19.0566
      ],
      [
       72.831941,
       19.0576
      ],
      [
       72.833959,
       19.0596
      ],
      [
       72.8296,
       19.06366
      ]
     ]
    ],
    "type": "Polygon"
   }
  }
 ]
}