{
 "type": "FeatureCollection",
 "features": [
  {
   "type": "Feature",
   "properties": {
    "hub": {
     "lat": 19.0596,
     "lon": 72.8296
    },
    "hub_name": "pali_hill",
    "costing": "auto",
    "contour_minutes": 15,
    "provider": "valhalla1.openstreetmap.de",
    "polygon_count": 1,
    "vertex_count": 0,
    "bbox": [
     72.81107,
     19.0066,
     72.863198,
     19.093627
    ]
   },
   "geometry": {
    "coordinates": [
     [
      [
       72.8506,
       19.093627
      ],
      [
       72.850529,
       19.09267
      ],
      [
       72.8466,
       19.092806
      ],
      [
       72.846068,
       19.092131
      ],
      [
       72.844389,
       19.09181
      ],
      [
       72.842831,
       19.0906
      ],
      [
       72.843197,
       19.089197
      ],
      [
       72.842993,
       19.0876
      ],
      [
       72.843915,
       19.086915
      ],
      [
       72.844324,
       19.085324
      ],
      [
       72.844952,
       19.0846
      ],
      [
       72.844905,
       19.082294
      ],
      [
       72.8426,
       19.082836
      ],
      [
       72.8416,
       19.085333
      ],
      [
       72.839991,
       19.0866
      ],
      [
       72.839326,
       19.086874
      ],
      [
       72.838574,
       19.0866
      ],
      [
       72.8401,
       19.090099
      ],
      [
       72.841683,
       19.0906
      ],
      [
       72.8396,
       19.090927
      ],
      [
       72.839057,
       19.0916
      ],
      [
       72.839535,
       19.0926
      ],
      [
       72.83879,
       19.09279
      ],
      [
       72.838404,
       19.0926
      ],
      [
       72.838012,
       19.091187
      ],
      [
       72.836072,
       19.0906
      ],
      [
       72.8336,
       19.088649
      ],
      [
       72.832959,
       19.08724
      ],
      [
       72.8316,
       19.085823
      ],
      [
       72.829415,
       19.0856
      ],
      [
       72.830321,
       19.085321
      ],
      [
       72.831044,
       19.0836
      ],
      [
       72.829936,
       19.082263
      ],
      [
       72.827529,
       19.08167
      ],
      [
       72.827204,
       19.079995
      ],
      [
       72.825923,
       19.079276
      ],
      [
       72.8246,
       19.079076
      ],
      [
       72.8236,
       19.079781
      ],
      [
       72.8226,
       19.078612
      ],
      [
       72.8206,
       19.078443
      ],
      [
       72.820242,
       19.077957
      ],
      [
       72.820968,
       19.0766
      ],
      [
       72.82081,
       19.0716
      ],
      [
       72.821784,
       19.0706
      ],
      [
       72.821717,
       19.0626
      ],
      [
       72.820824,
       19.062375
      ],
      [
       72.820725,
       19.0586
      ],
      [
       72.820851,
       19.057851
      ],
      [
       72.821682,
       19.057682
      ],
      [
       72.821865,
       19.056865
      ],
      [
       72.822688,
       19.056688
      ],
      [
       72.822906,
       19.055906
      ],
      [
       72.823721,
       19.0556
      ],
      [
       72.82211,
       19.055089
      ],
      [
       72.820881,
       19.0536
      ],
      [
       72.820769,
       19.0506
      ],
      [
       72.819862,
       19.0496
      ],
      [
       72.819829,
       19.0476
      ],
      [
       72.819111,
       19.047088
      ],
      [
       72.818822,
       19.045377
      ],
      [
       72.817961,
       19.0446
      ],
      [
       72.818125,
       19.0426
      ],
      [
       72.818896,
       19.041896
      ],
      [
       72.817812,
       19.0406
      ],
      [
       72.818288,
       19.0396
      ],
      [
       72.818062,
       19.039137
      ],
      [
       72.816822,
       19.0386
      ],
      [
       72.8173,
       19.0366
      ],
      [
       72.817071,
       19.036128
      ],
      [
       72.815841,
       19.0356
      ],
      [
       72.81585,
       19.0336
      ],
      [
       72.816317,
       19.0326
      ],
      [
       72.816082,
       19.032117
      ],
      [
       72.814867,
       19.0316
      ],
      [
       72.814878,
       19.0296
      ],
      [
       72.815338,
       19.0286
      ],
      [
       72.815096,
       19.028103
      ],
      [
       72.8139,
       19.0276
      ],
      [
       72.813917,
       19.0256
      ],
      [
       72.81436,
       19.0246
      ],
      [
       72.814135,
       19.024064
      ],
      [
       72.812941,
       19.0236
      ],
      [
       72.812967,
       19.0216
      ],
      [
       72.811997,
       19.0206
      ],
      [
       72.812254,
       19.016945
      ],
      [
       72.81107,
       19.0166
      ],
      [
       72.811455,
       19.010455
      ],
      [
       72.812253,
       19.0096
      ],
      [
       72.812333,
       19.0086
      ],
      [
       72.813526,
       19.008526
      ],
      [
       72.813588,
       19.006611
      ],
      [
       72.813091,
       19.0066
      ],
      [
       72.81361,
       19.0066
      ],
      [
       72.81368,
       19.0086
      ],
      [
       72.812771,
       19.008771
      ],
      [
       72.812974,
       19.0106
      ],
      [
       72.812024,
       19.0116
      ],
      [
       72.812247,
       19.012952
      ],
      [
       72.8146,
       19.01316
      ],
      [
       72.815409,
       19.012409
      ],
      [
       72.816846,
       19.0126
      ],
      [
       72.8166,
       19.014568
      ],
      [
       72.8156,
       19.014008
      ],
      [
       72.813255,
       19.014255
      ],
      [
       72.813202,
       19.0196
      ],
      [
       72.814218,
       19.0206
      ],
      [
       72.814245,
       19.0226
      ],
      [
       72.81484,
       19.02336
      ],
      [
       72.814894,
       19.026305
      ],
      [
       72.816302,
       19.0276
      ],
      [
       72.816329,
       19.0306
      ],
      [
       72.817336,
       19.0316
      ],
      [
       72.817355,
       19.0346
      ],
      [
       72.818363,
       19.0356
      ],
      [
       72.818374,
       19.0376
      ],
      [
       72.819158,
       19.038041
      ],
      [
       72.819458,
       19.039741
      ],
      [
       72.820184,
       19.040015
      ],
      [
       72.8206,
       19.040802
      ],
      [
       72.822203,
       19.040996
      ],
      [
       72.8226,
       19.041794
      ],
      [
       72.8256,
       19.04185
      ],
      [
       72.826472,
       19.042727
      ],
      [
       72.827259,
       19.04294
      ],
      [
       72.827488,
       19.043711
      ],
      [
       72.829278,
       19.043921
      ],
      [
       72.829495,
       19.044704
      ],
      [
       72.83029,
       19.044909
      ],
      [
       72.830498,
       19.045701
      ],
      [
       72.831298,
       19.045901
      ],
      [
       72.831501,
       19.046698
      ],
      [
       72.832308,
       19.046891
      ],
      [
       72.832504,
       19.047695
      ],
      [
       72.833315,
       19.047884
      ],
      [
       72.833507,
       19.048692
      ],
      [
       72.836701,
       19.048701
      ],
      [
       72.835833,
       19.0476
      ],
      [
       72.835827,
       19.0466
      ],
      [
       72.83588,
       19.0456
      ],
      [
       72.836806,
       19.0446
      ],
      [
       72.837,
       19.043
      ],
      [
       72.837771,
       19.0426
      ],
      [
       72.837742,
       19.041457
      ],
      [
       72.836866,
       19.0406
      ],
      [
       72.837823,
       19.039376
      ],
      [
       72.837926,
       19.0346
      ],
      [
       72.837162,
       19.0336
      ],
      [
       72.838308,
       19.030308
      ],
      [
       72.8386,
       19.029896
      ],
      [
       72.8396,
       19.03087
      ],
      [
       72.8406,
       19.030068
      ],
      [
       72.840655,
       19.0286
      ],
      [
       72.8416,
       19.027057
      ],
      [
       72.842787,
       19.029412
      ],
      [
       72.845859,
       19.0306
      ],
      [
       72.844655,
       19.0326
      ],
      [
       72.8456,
       19.033
      ],
      [
       72.846686,
       19.032513
      ],
      [
       72.8476,
       19.032929
      ],
      [
       72.847913,
       19.0386
      ],
      [
       72.847293,
       19.0396
      ],
      [
       72.84739,
       19.041809
      ],
      [
       72.8476,
       19.042084
      ],
      [
       72.849328,
       19.041328
      ],
      [
       72.850346,
       19.041346
      ],
      [
       72.8506,
       19.040697
      ],
      [
       72.850778,
       19.0416
      ],
      [
       72.850214,
       19.0426
      ],
      [
       72.851034,
       19.0436
      ],
      [
       72.850651,
       19.0446
      ],
      [
       72.853877,
       19.045322
      ],
      [
       72.853796,
       19.046796
      ],
      [
       72.8546,
       19.048228
      ],
      [
       72.856361,
       19.048361
      ],
      [
       72.8566,
       19.047688
      ],
      [
       72.857073,
       19.048126
      ],
      [
       72.857181,
       19.0486
      ],
      [
       72.8566,
       19.049308
      ],
      [
       72.8536,
       19.049154
      ],
      [
       72.852872,
       19.048327
      ],
      [
       72.8516,
       19.048296
      ],
      [
       72.851095,
       19.050095
      ],
      [
       72.849367,
       19.051832
      ],
      [
       72.8516,
       19.051828
      ],
      [
       72.853225,
       19.052974
      ],
      [
       72.85347,
       19.053729
      ],
      [
       72.854183,
       19.054016
      ],
      [
       72.854448,
       19.054751
      ],
      [
       72.856078,
       19.056121
      ],
      [
       72.856428,
       19.058771
      ],
      [
       72.8596,
       19.058956
      ],
      [
       72.8606,
       19.058055
      ],
      [
       72.862879,
       19.0586
      ],
      [
       72.8626,
       19.060423
      ],
      [
       72.862301,
       19.058898
      ],
      [
       72.8616,
       19.058819
      ],
      [
       72.860886,
       19.0596
      ],
      [
       72.861292,
       19.060907
      ],
      [
       72.8626,
       19.060801
      ],
      [
       72.863198,
       19.0616
      ],
      [
       72.861769,
       19.0626
      ],
      [
       72.862251,
       19.0636
      ],
      [
       72.862237,
       19.064963
      ],
      [
       72.862732,
       19.0656
      ],
      [
       72.8616,
       19.065879
      ],
      [
       72.860898,
       19.065301
      ],
      [
       72.8586,
       19.064781
      ],
      [
       72.858592,
       19.0636
      ],
      [
       72.8576,
       19.063215
      ],
      [
       72.856526,
       19.0646
      ],
      [
       72.854596,
       19.065603
      ],
      [
       72.8536,
       19.064212
      ],
      [
       72.8516,
       19.06345
      ],
      [
       72.850716,
       19.0656
      ],
      [
       72.850939,
       19.0666
      ],
      [
       72.849229,
       19.067229
      ],
      [
       72.848884,
       19.067884
      ],
      [
       72.8476,
       19.068638
      ],
      [
       72.847332,
       19.069332
      ],
      [
       72.847243,
       19.0726
      ],
      [
       72.8476,
       19.0739
      ],
      [
       72.851349,
       19.073349
      ],
      [
       72.8516,
       19.072999
      ],
      [
       72.8536,
       19.073037
      ],
      [
       72.855152,
       19.075047
      ],
      [
       72.856722,
       19.0756
      ],
      [
       72.8536,
       19.076132
      ],
      [
       72.851852,
       19.075852
      ],
      [
       72.8516,
       19.076455
      ],
      [
       72.851064,
       19.075135
      ],
      [
       72.8486,
       19.075129
      ],
      [
       72.848129,
       19.0756
      ],
      [
       72.848185,
       19.0796
      ],
      [
       72.849941,
       19.0806
      ],
      [
       72.8486,
       19.080874
      ],
      [
       72.84776,
       19.0816
      ],
      [
       72.847304,
       19.0836
      ],
      [
       72.846377,
       19.084377
      ],
      [
       72.845899,
       19.085899
      ],
      [
       72.845059,
       19.0866
      ],
      [
       72.845212,
       19.0876
      ],
      [
       72.844189,
       19.0886
      ],
      [
       72.844156,
       19.0896
      ],
      [
       72.84525,
       19.090949
      ],
      [
       72.8466,
       19.091193
      ],
      [
       72.846894,
       19.092305
      ],
      [
       72.850658,
       19.092541
      ],
      [
       72.850702,
       19.093497
      ],
      [
       72.851042,
       19.0936
      ],
      [
       72.8506,
       19.093627
      ]
     ]
    ],
    "type": "Polygon"
   }
  }
 ]
}