{
 "type": "FeatureCollection",
 "features": [
  {
   "type": "Feature",
   "properties": {
    "hub": {
     "lat": 19.0596,
     "lon": 72.8296
    },
    "hub_name": "pali_hill",
    "costing": "auto",
    "contour_minutes": 30,
    "provider": "valhalla1.openstreetmap.de",
    "polygon_count": 1,
    "vertex_count": 0,
    "bbox": [
     72.7956,
     18.937736,
     72.90132,
     19.157479
    ]
   },
   "geometry": {
    "coordinates": [
     [
      [
       72.8576,
       19.157479
      ],
      [
       72.854197,
       19.1536
      ],
      [
       72.853986,
       19.1476
      ],
      [
       72.8516,
       19.144946
      ],
      [
       72.850316,
       19.140883
      ],
      [
       72.8436,
       19.140699
      ],
      [
       72.843128,
       19.140071
      ],
      [
       72.8436,
       19.138397
      ],
      [
       72.847999,
       19.137999
      ],
      [
       72.8476,
       19.133736
      ],
      [
       72.845249,
       19.12995
      ],
      [
       72.843531,
       19.129669
      ],
      [
       72.841242,
       19.127957
      ],
      [
       72.836987,
       19.1276
      ],
      [
       72.837352,
       19.1236
      ],
      [
       72.835826,
       19.117373
      ],
      [
       72.8316,
       19.118721
      ],
      [
       72.831018,
       19.1196
      ],
      [
       72.832665,
       19.1216
      ],
      [
       72.8316,
       19.126505
      ],
      [
       72.8296,
       19.125961
      ],
      [
       72.8276,
       19.123532
      ],
      [
       72.823456,
       19.123743
      ],
      [
       72.82413,
       19.1196
      ],
      [
       72.823895,
       19.1176
      ],
      [
       72.822457,
       19.1156
      ],
      [
       72.823122,
       19.1136
      ],
      [
       72.822012,
       19.1076
      ],
      [
       72.823858,
       19.1056
      ],
      [
       72.824088,
       19.096088
      ],
      [
       72.825773,
       19.0956
      ],
      [
       72.825736,
       19.0876
      ],
      [
       72.823898,
       19.087301
      ],
      [
       72.823702,
       19.083497
      ],
      [
       72.819878,
       19.083321
      ],
      [
       72.819689,
       19.08151
      ],
      [
       72.81786,
       19.081339
      ],
      [
       72.817848,
       19.075848
      ],
      [
       72.819703,
       19.0756
      ],
      [
       72.819787,
       19.065787
      ],
      [
       72.821689,
       19.0656
      ],
      [
       72.819771,
       19.065428
      ],
      [
       72.819774,
       19.055774
      ],
      [
       72.821688,
       19.0556
      ],
      [
       72.819804,
       19.055395
      ],
      [
       72.819667,
       19.051532
      ],
      [
       72.817826,
       19.051373
      ],
      [
       72.817707,
       19.0456
      ],
      [
       72.815836,
       19.045363
      ],
      [
       72.815718,
       19.0436
      ],
      [
       72.815836,
       19.041836
      ],
      [
       72.8177,
       19.0416
      ],
      [
       72.815803,
       19.041396
      ],
      [
       72.815703,
       19.0356
      ],
      [
       72.81381,
       19.035389
      ],
      [
       72.813686,
       19.029513
      ],
      [
       72.812033,
       19.029166
      ],
      [
       72.811688,
       19.021511
      ],
      [
       72.809998,
       19.021201
      ],
      [
       72.809748,
       18.9916
      ],
      [
       72.80791,
       18.991289
      ],
      [
       72.807756,
       18.9876
      ],
      [
       72.807912,
       18.985912
      ],
      [
       72.809705,
       18.985705
      ],
      [
       72.810172,
       18.9836
      ],
      [
       72.8096,
       18.981419
      ],
      [
       72.803981,
       18.981218
      ],
      [
       72.8036,
       18.978785
      ],
      [
       72.801919,
       18.97728
      ],
      [
       72.801735,
       18.975464
      ],
      [
       72.800019,
       18.97518
      ],
      [
       72.79976,
       18.971439
      ],
      [
       72.798256,
       18.970943
      ],
      [
       72.797928,
       18.9696
      ],
      [
       72.798091,
       18.9576
      ],
      [
       72.796141,
       18.9556
      ],
      [
       72.7956,
       18.951407
      ],
      [
       72.7976,
       18.950806
      ],
      [
       72.7996,
       18.952745
      ],
      [
       72.8016,
       18.952254
      ],
      [
       72.802939,
       18.9536
      ],
      [
       72.802542,
       18.9556
      ],
      [
       72.8036,
       18.955981
      ],
      [
       72.803831,
       18.953831
      ],
      [
       72.806779,
       18.952779
      ],
      [
       72.8076,
       18.952741
      ],
      [
       72.808794,
       18.954405
      ],
      [
       72.810328,
       18.954328
      ],
      [
       72.8116,
       18.951974
      ],
      [
       72.813871,
       18.951872
      ],
      [
       72.814454,
       18.950454
      ],
      [
       72.815901,
       18.949901
      ],
      [
       72.818628,
       18.946628
      ],
      [
       72.822415,
       18.944415
      ],
      [
       72.8236,
       18.937736
      ],
      [
       72.8256,
       18.940005
      ],
      [
       72.826658,
       18.944542
      ],
      [
       72.828427,
       18.9456
      ],
      [
       72.8276,
       18.946366
      ],
      [
       72.822879,
       18.946879
      ],
      [
       72.817279,
       18.953279
      ],
      [
       72.816646,
       18.9556
      ],
      [
       72.81761,
       18.9596
      ],
      [
       72.820294,
       18.9616
      ],
      [
       72.822346,
       18.9656
      ],
      [
       72.825698,
       18.9676
      ],
      [
       72.825169,
       18.9696
      ],
      [
       72.822625,
       18.9716
      ],
      [
       72.819941,
       18.975942
      ],
      [
       72.81732,
       18.97532
      ],
      [
       72.817237,
       18.977237
      ],
      [
       72.8176,
       18.97793
      ],
      [
       72.822547,
       18.978652
      ],
      [
       72.827011,
       18.9816
      ],
      [
       72.825142,
       18.9896
      ],
      [
       72.827342,
       18.9936
      ],
      [
       72.83335,
       18.99335
      ],
      [
       72.833415,
       18.989415
      ],
      [
       72.8356,
       18.986369
      ],
      [
       72.836994,
       18.9876
      ],
      [
       72.836886,
       18.9896
      ],
      [
       72.8436,
       18.996678
      ],
      [
       72.8456,
       18.995424
      ],
      [
       72.8476,
       18.997211
      ],
      [
       72.851595,
       18.997595
      ],
      [
       72.850906,
       18.996293
      ],
      [
       72.8516,
       18.993288
      ],
      [
       72.851754,
       18.995445
      ],
      [
       72.8537,
       18.995499
      ],
      [
       72.854431,
       18.998768
      ],
      [
       72.855969,
       18.9996
      ],
      [
       72.856485,
       19.0056
      ],
      [
       72.854552,
       19.0076
      ],
      [
       72.856733,
       19.0096
      ],
      [
       72.85702,
       19.012179
      ],
      [
       72.8616,
       19.015879
      ],
      [
       72.8616,
       19.011368
      ],
      [
       72.8636,
       19.011392
      ],
      [
       72.864397,
       19.012802
      ],
      [
       72.8676,
       19.014134
      ],
      [
       72.869043,
       19.016156
      ],
      [
       72.872908,
       19.0176
      ],
      [
       72.8716,
       19.018508
      ],
      [
       72.86875,
       19.01875
      ],
      [
       72.868158,
       19.0216
      ],
      [
       72.866242,
       19.0236
      ],
      [
       72.865639,
       19.0256
      ],
      [
       72.86837,
       19.026829
      ],
      [
       72.868865,
       19.030334
      ],
      [
       72.8696,
       19.030842
      ],
      [
       72.8716,
       19.029829
      ],
      [
       72.872188,
       19.031011
      ],
      [
       72.8736,
       19.031504
      ],
      [
       72.8776,
       19.030667
      ],
      [
       72.879647,
       19.0316
      ],
      [
       72.880304,
       19.032895
      ],
      [
       72.8796,
       19.042975
      ],
      [
       72.8776,
       19.042648
      ],
      [
       72.875882,
       19.045882
      ],
      [
       72.8736,
       19.046521
      ],
      [
       72.8716,
       19.046081
      ],
      [
       72.870913,
       19.0476
      ],
      [
       72.876996,
       19.048203
      ],
      [
       72.8776,
       19.0498
      ],
      [
       72.8796,
       19.049916
      ],
      [
       72.8836,
       19.051924
      ],
      [
       72.8856,
       19.050215
      ],
      [
       72.8896,
       19.049006
      ],
      [
       72.8916,
       19.049426
      ],
      [
       72.8936,
       19.048081
      ],
      [
       72.8956,
       19.051858
      ],
      [
       72.8976,
       19.052437
      ],
      [
       72.900009,
       19.0516
      ],
      [
       72.900137,
       19.0536
      ],
      [
       72.896278,
       19.058278
      ],
      [
       72.8956,
       19.058894
      ],
      [
       72.8936,
       19.057643
      ],
      [
       72.892954,
       19.058954
      ],
      [
       72.8936,
       19.060291
      ],
      [
       72.8956,
       19.06006
      ],
      [
       72.89689,
       19.062309
      ],
      [
       72.90132,
       19.0656
      ],
      [
       72.900408,
       19.066408
      ],
      [
       72.89392,
       19.0676
      ],
      [
       72.8936,
       19.069801
      ],
      [
       72.8924,
       19.068799
      ],
      [
       72.8896,
       19.06845
      ],
      [
       72.886491,
       19.0716
      ],
      [
       72.891634,
       19.075565
      ],
      [
       72.892214,
       19.078985
      ],
      [
       72.894036,
       19.0796
      ],
      [
       72.890254,
       19.082254
      ],
      [
       72.890637,
       19.084562
      ],
      [
       72.897211,
       19.0856
      ],
      [
       72.895117,
       19.087117
      ],
      [
       72.8916,
       19.087603
      ],
      [
       72.8896,
       19.089995
      ],
      [
       72.887175,
       19.091175
      ],
      [
       72.886788,
       19.0936
      ],
      [
       72.8836,
       19.098504
      ],
      [
       72.880086,
       19.0936
      ],
      [
       72.879897,
       19.089302
      ],
      [
       72.8768,
       19.088399
      ],
      [
       72.874371,
       19.0856
      ],
      [
       72.8756,
       19.083364
      ],
      [
       72.8756,
       19.081324
      ],
      [
       72.87344,
       19.08144
      ],
      [
       72.873149,
       19.083149
      ],
      [
       72.8676,
       19.08338
      ],
      [
       72.867152,
       19.085153
      ],
      [
       72.86347,
       19.08547
      ],
      [
       72.86322,
       19.08722
      ],
      [
       72.8576,
       19.087402
      ],
      [
       72.857208,
       19.089208
      ],
      [
       72.853991,
       19.089208
      ],
      [
       72.853721,
       19.087478
      ],
      [
       72.851965,
       19.087234
      ],
      [
       72.8516,
       19.085453
      ],
      [
       72.85128,
       19.08728
      ],
      [
       72.847453,
       19.0876
      ],
      [
       72.84751,
       19.089689
      ],
      [
       72.851355,
       19.089844
      ],
      [
       72.8516,
       19.091724
      ],
      [
       72.853707,
       19.091707
      ],
      [
       72.853996,
       19.089996
      ],
      [
       72.8556,
       19.089798
      ],
      [
       72.857203,
       19.089996
      ],
      [
       72.857489,
       19.091711
      ],
      [
       72.859278,
       19.091921
      ],
      [
       72.859264,
       19.097264
      ],
      [
       72.857437,
       19.0976
      ],
      [
       72.859168,
       19.098031
      ],
      [
       72.859487,
       19.099712
      ],
      [
       72.86034,
       19.09834
      ],
      [
       72.862067,
       19.0976
      ],
      [
       72.862671,
       19.094671
      ],
      [
       72.867097,
       19.094102
      ],
      [
       72.868553,
       19.094647
      ],
      [
       72.871151,
       19.098048
      ],
      [
       72.876964,
       19.098235
      ],
      [
       72.878594,
       19.1016
      ],
      [
       72.878715,
       19.1036
      ],
      [
       72.87648,
       19.1056
      ],
      [
       72.876958,
       19.1096
      ],
      [
       72.875187,
       19.115187
      ],
      [
       72.8716,
       19.120568
      ],
      [
       72.8676,
       19.122495
      ],
      [
       72.866313,
       19.126313
      ],
      [
       72.8636,
       19.127489
      ],
      [
       72.862405,
       19.126794
      ],
      [
       72.8611,
       19.1271
      ],
      [
       72.86094,
       19.128259
      ],
      [
       72.862017,
       19.129182
      ],
      [
       72.8616,
       19.13171
      ],
      [
       72.8576,
       19.130722
      ],
      [
       72.8576,
       19.133367
      ],
      [
       72.859407,
       19.1356
      ],
      [
       72.859356,
       19.1376
      ],
      [
       72.8636,
       19.137276
      ],
      [
       72.866112,
       19.1396
      ],
      [
       72.862625,
       19.140625
      ],
      [
       72.859488,
       19.143488
      ],
      [
       72.857905,
       19.143905
      ],
      [
       72.856496,
       19.1496
      ],
      [
       72.858652,
       19.1536
      ],
      [
       72.8576,
       19.157479
      ]
     ]
    ],
    "type": "Polygon"
   }
  }
 ]
}