{
 "type": "FeatureCollection",
 "features": [
  {
   "type": "Feature",
   "properties": {
    "hub": {
     "lat": 19.0596,
     "lon": 72.8296
    },
    "hub_name": "pali_hill",
    "costing": "pedestrian",
    "contour_minutes": 15,
    "provider": "valhalla1.openstreetmap.de",
    "polygon_count": 1,
    "vertex_count": 0,
    "bbox": [
     72.819853,
     19.050298,
     72.840092,
     19.070853
    ]
   },
   "geometry": {
    "coordinates": [
     [
      [
       72.8296,
       19.070853
      ],
      [
       72.82893,
       19.0706
      ],
      [
       72.82903,
       19.0696
      ],
      [
       72.828073,
       19.067126
      ],
      [
       72.8266,
       19.066131
      ],
      [
       72.8246,
       19.066501
      ],
      [
       72.8236,
       19.065074
      ],
      [
       72.822344,
       19.064855
      ],
      [
       72.821824,
       19.0626
      ],
      [
       72.820952,
       19.062247
      ],
      [
       72.820732,
       19.060468
      ],
      [
       72.819853,
       19.0596
      ],
      [
       72.820124,
       19.058124
      ],
      [
       72.821733,
       19.057733
      ],
      [
       72.822995,
       19.055995
      ],
      [
       72.823724,
       19.055724
      ],
      [
       72.8236,
       19.055124
      ],
      [
       72.822821,
       19.0546
      ],
      [
       72.8236,
       19.053093
      ],
      [
       72.8246,
       19.052815
      ],
      [
       72.825916,
       19.050916
      ],
      [
       72.827298,
       19.050298
      ],
      [
       72.828465,
       19.050734
      ],
      [
       72.8306,
       19.050409
      ],
      [
       72.8316,
       19.050925
      ],
      [
       72.833112,
       19.0506
      ],
      [
       72.8336,
       19.052089
      ],
      [
       72.8346,
       19.052238
      ],
      [
       72.835716,
       19.053483
      ],
      [
       72.837598,
       19.0546
      ],
      [
       72.838455,
       19.055744
      ],
      [
       72.839299,
       19.0559
      ],
      [
       72.839968,
       19.057231
      ],
      [
       72.840092,
       19.0586
      ],
      [
       72.839267,
       19.059267
      ],
      [
       72.838921,
       19.061921
      ],
      [
       72.8376,
       19.064518
      ],
      [
       72.834486,
       19.066486
      ],
      [
       72.833877,
       19.067877
      ],
      [
       72.831952,
       19.0696
      ],
      [
       72.8296,
       19.070853
      ]
     ]
    ],
    "type": "Polygon"
   }
  }
 ]
}