{
 "type": "FeatureCollection",
 "features": [
  {
   "type": "Feature",
   "properties": {
    "hub": {
     "lat": 19.0596,
     "lon": 72.8296
    },
    "hub_name": "pali_hill",
    "costing": "pedestrian",
    "contour_minutes": 10,
    "provider": "valhalla1.openstreetmap.de",
    "polygon_count": 1,
    "vertex_count": 0,
    "bbox": [
     72.821854,
     19.052761,
     72.837581,
     19.067082
    ]
   },
   "geometry": {
    "coordinates": [
     [
      [
       72.8296,
       19.067082
      ],
      [
       72.828701,
       19.0656
      ],
      [
       72.828823,
       19.064376
      ],
      [
       72.8266,
       19.064104
      ],
      [
       72.824131,
       19.0616
      ],
      [
       72.821965,
       19.061235
      ],
      [
       72.821854,
       19.059854
      ],
      [
       72.823407,
       19.057407
      ],
      [
       72.825812,
       19.055812
      ],
      [
       72.827108,
       19.054108
      ],
      [
       72.828876,
       19.052876
      ],
      [
       72.830438,
       19.052761
      ],
      [
       72.831225,
       19.052974
      ],
      [
       72.8346,
       19.056434
      ],
      [
       72.834119,
       19.057119
      ],
      [
       72.834279,
       19.05792
      ],
      [
       72.836034,
       19.058165
      ],
      [
       72.837581,
       19.0596
      ],
      [
       72.837211,
       19.0606
      ],
      [
       72.836253,
       19.061253
      ],
      [
       72.8356,
       19.062462
      ],
      [
       72.8296,
       19.067082
      ]
     ]
    ],
    "type": "Polygon"
   }
  }
 ]
}