{
 "type": "FeatureCollection",
 "features": [
  {
   "type": "Feature",
   "properties": {
    "hub": {
     "lat": 19.0596,
     "lon": 72.8296
    },
    "hub_name": "pali_hill",
    "costing": "auto",
    "contour_minutes": 20,
    "provider": "valhalla1.openstreetmap.de",
    "polygon_count": 1,
    "vertex_count": 0,
    "bbox": [
     72.80829,
     18.979361,
     72.875618,
     19.123496
    ]
   },
   "geometry": {
    "coordinates": [
     [
      [
       72.8556,
       19.123496
      ],
      [
       72.854546,
       19.1156
      ],
      [
       72.85234,
       19.1136
      ],
      [
       72.8516,
       19.110585
      ],
      [
       72.8496,
       19.109892
      ],
      [
       72.8516,
       19.107715
      ],
      [
       72.851875,
       19.105875
      ],
      [
       72.850203,
       19.100997
      ],
      [
       72.8476,
       19.100468
      ],
      [
       72.8456,
       19.098478
      ],
      [
       72.842089,
       19.1016
      ],
      [
       72.841201,
       19.105201
      ],
      [
       72.8396,
       19.107354
      ],
      [
       72.8376,
       19.104852
      ],
      [
       72.83449,
       19.1036
      ],
      [
       72.835144,
       19.101144
      ],
      [
       72.838036,
       19.0976
      ],
      [
       72.83609,
       19.0956
      ],
      [
       72.836118,
       19.0936
      ],
      [
       72.8316,
       19.093154
      ],
      [
       72.8296,
       19.091934
      ],
      [
       72.828031,
       19.0936
      ],
      [
       72.8276,
       19.096564
      ],
      [
       72.826335,
       19.092864
      ],
      [
       72.826027,
       19.0876
      ],
      [
       72.824188,
       19.0856
      ],
      [
       72.824366,
       19.0836
      ],
      [
       72.820519,
       19.08268
      ],
      [
       72.819872,
       19.081327
      ],
      [
       72.818348,
       19.080851
      ],
      [
       72.818259,
       19.076259
      ],
      [
       72.819813,
       19.0756
      ],
      [
       72.819953,
       19.065953
      ],
      [
       72.821761,
       19.0656
      ],
      [
       72.8199,
       19.065299
      ],
      [
       72.819909,
       19.055909
      ],
      [
       72.821758,
       19.0556
      ],
      [
       72.820017,
       19.055182
      ],
      [
       72.819736,
       19.051463
      ],
      [
       72.818123,
       19.051076
      ],
      [
       72.817772,
       19.045427
      ],
      [
       72.816179,
       19.04502
      ],
      [
       72.816179,
       19.042179
      ],
      [
       72.817802,
       19.0416
      ],
      [
       72.816015,
       19.041184
      ],
      [
       72.815815,
       19.0356
      ],
      [
       72.814046,
       19.035153
      ],
      [
       72.813987,
       19.0276
      ],
      [
       72.812143,
       19.027056
      ],
      [
       72.811855,
       19.0196
      ],
      [
       72.810143,
       19.019056
      ],
      [
       72.809873,
       19.0176
      ],
      [
       72.809904,
       19.0096
      ],
      [
       72.810427,
       19.008427
      ],
      [
       72.812289,
       19.0076
      ],
      [
       72.80995,
       19.0056
      ],
      [
       72.810172,
       18.9916
      ],
      [
       72.80829,
       18.9896
      ],
      [
       72.808312,
       18.9876
      ],
      [
       72.811026,
       18.987026
      ],
      [
       72.811333,
       18.985333
      ],
      [
       72.813018,
       18.985018
      ],
      [
       72.813331,
       18.9836
      ],
      [
       72.813204,
       18.981996
      ],
      [
       72.810947,
       18.9816
      ],
      [
       72.809086,
       18.9796
      ],
      [
       72.8116,
       18.979361
      ],
      [
       72.813918,
       18.9816
      ],
      [
       72.814153,
       18.9856
      ],
      [
       72.812475,
       18.9876
      ],
      [
       72.812721,
       18.9996
      ],
      [
       72.8136,
       19.003502
      ],
      [
       72.815142,
       19.004057
      ],
      [
       72.817454,
       19.007745
      ],
      [
       72.819599,
       19.007225
      ],
      [
       72.8236,
       19.009439
      ],
      [
       72.824704,
       19.012495
      ],
      [
       72.82737,
       19.0136
      ],
      [
       72.827649,
       19.0156
      ],
      [
       72.826312,
       19.016312
      ],
      [
       72.8256,
       19.018011
      ],
      [
       72.821244,
       19.019245
      ],
      [
       72.818092,
       19.022092
      ],
      [
       72.8156,
       19.021641
      ],
      [
       72.815097,
       19.023097
      ],
      [
       72.815224,
       19.023975
      ],
      [
       72.816895,
       19.024304
      ],
      [
       72.817355,
       19.0256
      ],
      [
       72.817372,
       19.0316
      ],
      [
       72.819158,
       19.032041
      ],
      [
       72.819461,
       19.037738
      ],
      [
       72.821188,
       19.038011
      ],
      [
       72.8216,
       19.039798
      ],
      [
       72.825205,
       19.039994
      ],
      [
       72.8256,
       19.041783
      ],
      [
       72.829239,
       19.041961
      ],
      [
       72.829481,
       19.043718
      ],
      [
       72.831252,
       19.043947
      ],
      [
       72.831486,
       19.045714
      ],
      [
       72.833265,
       19.045934
      ],
      [
       72.833718,
       19.047718
      ],
      [
       72.834062,
       19.046062
      ],
      [
       72.835752,
       19.0456
      ],
      [
       72.835904,
       19.0316
      ],
      [
       72.833956,
       19.027243
      ],
      [
       72.832346,
       19.0256
      ],
      [
       72.832242,
       19.022957
      ],
      [
       72.831352,
       19.0216
      ],
      [
       72.831775,
       19.0176
      ],
      [
       72.8336,
       19.015403
      ],
      [
       72.835108,
       19.015108
      ],
      [
       72.8376,
       19.01634
      ],
      [
       72.8416,
       19.016213
      ],
      [
       72.8436,
       19.018562
      ],
      [
       72.8456,
       19.016615
      ],
      [
       72.8476,
       19.016431
      ],
      [
       72.849168,
       19.0176
      ],
      [
       72.849652,
       19.019652
      ],
      [
       72.8476,
       19.020581
      ],
      [
       72.846527,
       19.0236
      ],
      [
       72.848842,
       19.028357
      ],
      [
       72.852689,
       19.03251
      ],
      [
       72.8556,
       19.033861
      ],
      [
       72.8596,
       19.033342
      ],
      [
       72.861136,
       19.037136
      ],
      [
       72.857423,
       19.039776
      ],
      [
       72.859619,
       19.04158
      ],
      [
       72.859578,
       19.043621
      ],
      [
       72.860846,
       19.042846
      ],
      [
       72.86195,
       19.043249
      ],
      [
       72.862402,
       19.0456
      ],
      [
       72.864259,
       19.046941
      ],
      [
       72.866403,
       19.050796
      ],
      [
       72.8696,
       19.051543
      ],
      [
       72.8696,
       19.051663
      ],
      [
       72.868995,
       19.052995
      ],
      [
       72.868931,
       19.0536
      ],
      [
       72.868448,
       19.054448
      ],
      [
       72.867218,
       19.0556
      ],
      [
       72.868501,
       19.056698
      ],
      [
       72.870211,
       19.0636
      ],
      [
       72.87327,
       19.069929
      ],
      [
       72.875618,
       19.0716
      ],
      [
       72.872643,
       19.072643
      ],
      [
       72.871888,
       19.0756
      ],
      [
       72.868178,
       19.075021
      ],
      [
       72.866473,
       19.0756
      ],
      [
       72.867748,
       19.077451
      ],
      [
       72.86767,
       19.0796
      ],
      [
       72.8636,
       19.081318
      ],
      [
       72.861175,
       19.081175
      ],
      [
       72.8608,
       19.084801
      ],
      [
       72.859911,
       19.085911
      ],
      [
       72.8576,
       19.084376
      ],
      [
       72.8556,
       19.086553
      ],
      [
       72.8516,
       19.085053
      ],
      [
       72.8504,
       19.0864
      ],
      [
       72.8476,
       19.087132
      ],
      [
       72.845868,
       19.0896
      ],
      [
       72.850968,
       19.090231
      ],
      [
       72.8516,
       19.091931
      ],
      [
       72.858384,
       19.092815
      ],
      [
       72.858557,
       19.0956
      ],
      [
       72.85556,
       19.099639
      ],
      [
       72.8636,
       19.101445
      ],
      [
       72.863756,
       19.103443
      ],
      [
       72.864423,
       19.1036
      ],
      [
       72.863504,
       19.103695
      ],
      [
       72.862942,
       19.102257
      ],
      [
       72.861062,
       19.102137
      ],
      [
       72.855089,
       19.1036
      ],
      [
       72.8556,
       19.108011
      ],
      [
       72.856854,
       19.1096
      ],
      [
       72.854897,
       19.1116
      ],
      [
       72.856476,
       19.1136
      ],
      [
       72.8556,
       19.123496
      ]
     ]
    ],
    "type": "Polygon"
   }
  }
 ]
}