{
 "type": "FeatureCollection",
 "features": [
  {
   "type": "Feature",
   "properties": {
    "hub": {
     "lat": 19.0596,
     "lon": 72.8296
    },
    "hub_name": "pali_hill",
    "costing": "pedestrian",
    "contour_minutes": 20,
    "provider": "valhalla1.openstreetmap.de",
    "polygon_count": 1,
    "vertex_count": 0,
    "bbox": [
     72.819823,
     19.046904,
     72.843347,
     19.074533
    ]
   },
   "geometry": {
    "coordinates": [
     [
      [
       72.8316,
       19.073611
      ],
      [
       72.8306,
       19.074533
      ],
      [
       72.8286,
       19.073908
      ],
      [
       72.826792,
       19.0726
      ],
      [
       72.826653,
       19.071546
      ],
      [
       72.8256,
       19.071105
      ],
      [
       72.825133,
       19.070066
      ],
      [
       72.822989,
       19.06921
      ],
      [
       72.821908,
       19.067291
      ],
      [
       72.821705,
       19.0626
      ],
      [
       72.820787,
       19.062412
      ],
      [
       72.820666,
       19.060533
      ],
      [
       72.819823,
       19.060376
      ],
      [
       72.819835,
       19.057835
      ],
      [
       72.821666,
       19.057666
      ],
      [
       72.821817,
       19.056817
      ],
      [
       72.822664,
       19.056664
      ],
      [
       72.822798,
       19.055798
      ],
      [
       72.823693,
       19.0556
      ],
      [
       72.821951,
       19.055248
      ],
      [
       72.821735,
       19.054464
      ],
      [
       72.82111,
       19.054089
      ],
      [
       72.820873,
       19.0526
      ],
      [
       72.82118,
       19.05118
      ],
      [
       72.8216,
       19.050603
      ],
      [
       72.82371,
       19.04971
      ],
      [
       72.8246,
       19.047675
      ],
      [
       72.8256,
       19.046904
      ],
      [
       72.826444,
       19.047755
      ],
      [
       72.8286,
       19.048264
      ],
      [
       72.829177,
       19.049022
      ],
      [
       72.8316,
       19.049372
      ],
      [
       72.8326,
       19.050206
      ],
      [
       72.834235,
       19.050235
      ],
      [
       72.8346,
       19.049852
      ],
      [
       72.8356,
       19.050882
      ],
      [
       72.8366,
       19.049948
      ],
      [
       72.8386,
       19.050778
      ],
      [
       72.8396,
       19.05271
      ],
      [
       72.840773,
       19.052426
      ],
      [
       72.841206,
       19.053993
      ],
      [
       72.842275,
       19.0546
      ],
      [
       72.842222,
       19.055977
      ],
      [
       72.843347,
       19.0566
      ],
      [
       72.842142,
       19.057142
      ],
      [
       72.841002,
       19.060002
      ],
      [
       72.8396,
       19.060587
      ],
      [
       72.840821,
       19.0616
      ],
      [
       72.839256,
       19.064256
      ],
      [
       72.838573,
       19.0646
      ],
      [
       72.8396,
       19.065746
      ],
      [
       72.8376,
       19.068473
      ],
      [
       72.836443,
       19.068443
      ],
      [
       72.836311,
       19.0696
      ],
      [
       72.835607,
       19.070607
      ],
      [
       72.8326,
       19.0722
      ],
      [
       72.8316,
       19.073611
      ]
     ]
    ],
    "type": "Polygon"
   }
  }
 ]
}