{
 "type": "FeatureCollection",
 "features": [
  {
   "type": "Feature",
   "properties": {
    "hub": {
     "lat": 19.0596,
     "lon": 72.8296
    },
    "hub_name": "pali_hill",
    "costing": "auto",
    "contour_minutes": 10,
    "provider": "valhalla1.openstreetmap.de",
    "polygon_count": 1,
    "vertex_count": 0,
    "bbox": [
     72.820862,
     19.040695,
     72.852639,
     19.079774
    ]
   },
   "geometry": {
    "coordinates": [
     [
      [
       72.8376,
       19.079774
      ],
      [
       72.83657,
       19.0786
      ],
      [
       72.836226,
       19.076973
      ],
      [
       72.8356,
       19.076466
      ],
      [
       72.8346,
       19.078972
      ],
      [
       72.832532,
       19.076667
      ],
      [
       72.830173,
       19.075026
      ],
      [
       72.8276,
       19.074522
      ],
      [
       72.8266,
       19.075638
      ],
      [
       72.8256,
       19.075897
      ],
      [
       72.824909,
       19.0756
      ],
      [
       72.825146,
       19.0736
      ],
      [
       72.824319,
       19.07188
      ],
      [
       72.823633,
       19.0716
      ],
      [
       72.824849,
       19.070849
      ],
      [
       72.825333,
       19.0696
      ],
      [
       72.826147,
       19.069147
      ],
      [
       72.8266,
       19.068289
      ],
      [
       72.82765,
       19.06865
      ],
      [
       72.827714,
       19.0676
      ],
      [
       72.826978,
       19.067221
      ],
      [
       72.826759,
       19.06644
      ],
      [
       72.825888,
       19.066312
      ],
      [
       72.8256,
       19.065872
      ],
      [
       72.8246,
       19.066392
      ],
      [
       72.8226,
       19.068764
      ],
      [
       72.821884,
       19.0626
      ],
      [
       72.820862,
       19.0616
      ],
      [
       72.821825,
       19.0606
      ],
      [
       72.82112,
       19.060079
      ],
      [
       72.820906,
       19.058906
      ],
      [
       72.822197,
       19.057197
      ],
      [
       72.824034,
       19.0566
      ],
      [
       72.823694,
       19.053505
      ],
      [
       72.8226,
       19.051968
      ],
      [
       72.8216,
       19.051579
      ],
      [
       72.823036,
       19.051036
      ],
      [
       72.8246,
       19.049739
      ],
      [
       72.825336,
       19.047336
      ],
      [
       72.8266,
       19.048072
      ],
      [
       72.827817,
       19.047382
      ],
      [
       72.8286,
       19.048004
      ],
      [
       72.829058,
       19.049141
      ],
      [
       72.830834,
       19.049365
      ],
      [
       72.8316,
       19.050764
      ],
      [
       72.832365,
       19.050365
      ],
      [
       72.832079,
       19.04912
      ],
      [
       72.831333,
       19.048866
      ],
      [
       72.83013,
       19.047069
      ],
      [
       72.8286,
       19.0462
      ],
      [
       72.828454,
       19.044745
      ],
      [
       72.826835,
       19.0446
      ],
      [
       72.8286,
       19.044424
      ],
      [
       72.828858,
       19.045341
      ],
      [
       72.829756,
       19.045443
      ],
      [
       72.8336,
       19.049029
      ],
      [
       72.8376,
       19.048947
      ],
      [
       72.838757,
       19.042757
      ],
      [
       72.8396,
       19.041299
      ],
      [
       72.8406,
       19.040695
      ],
      [
       72.841739,
       19.04246
      ],
      [
       72.841679,
       19.04352
      ],
      [
       72.841994,
       19.0436
      ],
      [
       72.841007,
       19.0446
      ],
      [
       72.842644,
       19.0456
      ],
      [
       72.84152,
       19.04652
      ],
      [
       72.8406,
       19.046739
      ],
      [
       72.839974,
       19.047974
      ],
      [
       72.839268,
       19.048268
      ],
      [
       72.839297,
       19.048902
      ],
      [
       72.84003,
       19.049169
      ],
      [
       72.8416,
       19.050952
      ],
      [
       72.8436,
       19.050932
      ],
      [
       72.8446,
       19.051948
      ],
      [
       72.848002,
       19.052197
      ],
      [
       72.848318,
       19.052881
      ],
      [
       72.849842,
       19.053357
      ],
      [
       72.8506,
       19.054524
      ],
      [
       72.8516,
       19.054286
      ],
      [
       72.852639,
       19.056639
      ],
      [
       72.8526,
       19.057082
      ],
      [
       72.852561,
       19.056638
      ],
      [
       72.851499,
       19.0567
      ],
      [
       72.851149,
       19.05605
      ],
      [
       72.849333,
       19.055866
      ],
      [
       72.848875,
       19.054324
      ],
      [
       72.847476,
       19.054477
      ],
      [
       72.8466,
       19.064759
      ],
      [
       72.846179,
       19.0566
      ],
      [
       72.845191,
       19.0536
      ],
      [
       72.8446,
       19.05304
      ],
      [
       72.843157,
       19.053042
      ],
      [
       72.8426,
       19.052283
      ],
      [
       72.841431,
       19.052431
      ],
      [
       72.841408,
       19.0536
      ],
      [
       72.840431,
       19.0546
      ],
      [
       72.840059,
       19.0586
      ],
      [
       72.83907,
       19.0596
      ],
      [
       72.838938,
       19.0626
      ],
      [
       72.839364,
       19.0646
      ],
      [
       72.84038,
       19.0656
      ],
      [
       72.83938,
       19.0666
      ],
      [
       72.840326,
       19.067873
      ],
      [
       72.840003,
       19.0746
      ],
      [
       72.841113,
       19.0756
      ],
      [
       72.838384,
       19.077384
      ],
      [
       72.8376,
       19.079774
      ]
     ]
    ],
    "type": "Polygon"
   }
  }
 ]
}