{
 "type": "FeatureCollection",
 "features": [
  {
   "type": "Feature",
   "properties": {
    "hub": {
     "lat": 19.0596,
     "lon": 72.8296
    },
    "hub_name": "pali_hill",
    "costing": "auto",
    "contour_minutes": 5,
    "provider": "valhalla1.openstreetmap.de",
    "polygon_count": 1,
    "vertex_count": 0,
    "bbox": [
     72.826344,
     19.05386,
     72.840015,
     19.066739
    ]
   },
   "geometry": {
    "coordinates": [
     [
      [
       72.8336,
       19.066739
      ],
      [
       72.832912,
       19.065287
      ],
      [
       72.8316,
       19.064311
      ],
      [
       72.830971,
       19.0646
      ],
      [
       72.830695,
       19.0656
      ],
      [
       72.8296,
       19.066536
      ],
      [
       72.829115,
       19.0656
      ],
      [
       72.829197,
       19.0646
      ],
      [
       72.82806,
       19.0636
      ],
      [
       72.828916,
       19.0626
      ],
      [
       72.827136,
       19.062063
      ],
      [
       72.826344,
       19.060344
      ],
      [
       72.826655,
       19.0596
      ],
      [
       72.829244,
       19.058244
      ],
      [
       72.8296,
       19.054535
      ],
      [
       72.8306,
       19.054082
      ],
      [
       72.8326,
       19.054299
      ],
      [
       72.8356,
       19.055458
      ],
      [
       72.8376,
       19.05386
      ],
      [
       72.8386,
       19.055575
      ],
      [
       72.8396,
       19.054738
      ],
      [
       72.840015,
       19.0586
      ],
      [
       72.839184,
       19.0596
      ],
      [
       72.839029,
       19.0616
      ],
      [
       72.838017,
       19.0636
      ],
      [
       72.8376,
       19.065979
      ],
      [
       72.835841,
       19.064358
      ],
      [
       72.83485,
       19.06585
      ],
      [
       72.8336,
       19.066739
      ]
     ]
    ],
    "type": "Polygon"
   }
  }
 ]
}