{
 "type": "FeatureCollection",
 "features": [
  {
   "type": "Feature",
   "properties": {
    "hub": {
     "lat": 19.0596,
     "lon": 72.8296
    },
    "hub_name": "pali_hill",
    "costing": "pedestrian",
    "contour_minutes": 30,
    "provider": "valhalla1.openstreetmap.de",
    "polygon_count": 1,
    "vertex_count": 0,
    "bbox": [
     72.818232,
     19.042065,
     72.847192,
     19.081754
    ]
   },
   "geometry": {
    "coordinates": [
     [
      [
       72.8306,
       19.081754
      ],
      [
       72.8296,
       19.081447
      ],
      [
       72.8286,
       19.080273
      ],
      [
       72.8276,
       19.080602
      ],
      [
       72.827053,
       19.079146
      ],
      [
       72.8266,
       19.079208
      ],
      [
       72.8256,
       19.07782
      ],
      [
       72.825052,
       19.078052
      ],
      [
       72.8246,
       19.07902
      ],
      [
       72.8236,
       19.07886
      ],
      [
       72.82265,
       19.077549
      ],
      [
       72.8216,
       19.077192
      ],
      [
       72.821168,
       19.0766
      ],
      [
       72.820836,
       19.070363
      ],
      [
       72.820236,
       19.0696
      ],
      [
       72.820179,
       19.0686
      ],
      [
       72.8216,
       19.067975
      ],
      [
       72.821816,
       19.0636
      ],
      [
       72.821632,
       19.062567
      ],
      [
       72.820698,
       19.062501
      ],
      [
       72.820634,
       19.060565
      ],
      [
       72.819705,
       19.060494
      ],
      [
       72.819708,
       19.057708
      ],
      [
       72.821633,
       19.057633
      ],
      [
       72.821704,
       19.056704
      ],
      [
       72.8226,
       19.056652
      ],
      [
       72.822701,
       19.055701
      ],
      [
       72.823649,
       19.0556
      ],
      [
       72.821727,
       19.055472
      ],
      [
       72.821644,
       19.054555
      ],
      [
       72.820745,
       19.054454
      ],
      [
       72.82069,
       19.0506
      ],
      [
       72.81982,
       19.050379
      ],
      [
       72.819699,
       19.0485
      ],
      [
       72.818938,
       19.048261
      ],
      [
       72.818232,
       19.0446
      ],
      [
       72.8186,
       19.044149
      ],
      [
       72.8216,
       19.044928
      ],
      [
       72.8216,
       19.044331
      ],
      [
       72.8206,
       19.044433
      ],
      [
       72.820262,
       19.043937
      ],
      [
       72.820128,
       19.0426
      ],
      [
       72.821065,
       19.042065
      ],
      [
       72.8226,
       19.042224
      ],
      [
       72.824879,
       19.04332
      ],
      [
       72.82544,
       19.043759
      ],
      [
       72.8256,
       19.044652
      ],
      [
       72.827028,
       19.0446
      ],
      [
       72.826092,
       19.0436
      ],
      [
       72.8266,
       19.043157
      ],
      [
       72.8276,
       19.043058
      ],
      [
       72.82841,
       19.043789
      ],
      [
       72.830211,
       19.043988
      ],
      [
       72.830498,
       19.045701
      ],
      [
       72.831231,
       19.045968
      ],
      [
       72.831459,
       19.04674
      ],
      [
       72.832076,
       19.047123
      ],
      [
       72.833224,
       19.0496
      ],
      [
       72.835252,
       19.049947
      ],
      [
       72.8356,
       19.050673
      ],
      [
       72.83585,
       19.04885
      ],
      [
       72.83772,
       19.0486
      ],
      [
       72.835974,
       19.048226
      ],
      [
       72.835862,
       19.046862
      ],
      [
       72.837916,
       19.045916
      ],
      [
       72.838261,
       19.044261
      ],
      [
       72.8396,
       19.043601
      ],
      [
       72.840617,
       19.045582
      ],
      [
       72.841758,
       19.0466
      ],
      [
       72.841605,
       19.047605
      ],
      [
       72.8406,
       19.047478
      ],
      [
       72.840255,
       19.048255
      ],
      [
       72.839501,
       19.048501
      ],
      [
       72.839544,
       19.051655
      ],
      [
       72.839809,
       19.050809
      ],
      [
       72.84139,
       19.050809
      ],
      [
       72.841538,
       19.052661
      ],
      [
       72.842363,
       19.052836
      ],
      [
       72.8426,
       19.053695
      ],
      [
       72.843693,
       19.053693
      ],
      [
       72.84388,
       19.05288
      ],
      [
       72.8456,
       19.052353
      ],
      [
       72.846063,
       19.054136
      ],
      [
       72.846816,
       19.054383
      ],
      [
       72.846707,
       19.0586
      ],
      [
       72.847192,
       19.0606
      ],
      [
       72.846315,
       19.0626
      ],
      [
       72.845217,
       19.063217
      ],
      [
       72.8446,
       19.064449
      ],
      [
       72.843541,
       19.0646
      ],
      [
       72.8446,
       19.065003
      ],
      [
       72.84525,
       19.0666
      ],
      [
       72.8446,
       19.067792
      ],
      [
       72.84427,
       19.067929
      ],
      [
       72.844396,
       19.0676
      ],
      [
       72.843889,
       19.06731
      ],
      [
       72.84345,
       19.06745
      ],
      [
       72.8436,
       19.068036
      ],
      [
       72.844053,
       19.068146
      ],
      [
       72.844048,
       19.070048
      ],
      [
       72.8436,
       19.070483
      ],
      [
       72.8426,
       19.070237
      ],
      [
       72.840498,
       19.070498
      ],
      [
       72.840264,
       19.073264
      ],
      [
       72.839656,
       19.0746
      ],
      [
       72.838926,
       19.074926
      ],
      [
       72.83873,
       19.0756
      ],
      [
       72.837454,
       19.076454
      ],
      [
       72.8366,
       19.077826
      ],
      [
       72.8346,
       19.079409
      ],
      [
       72.8336,
       19.079276
      ],
      [
       72.8306,
       19.081754
      ]
     ]
    ],
    "type": "Polygon"
   }
  }
 ]
}